satname,norad_id,inclination_deg,eccentricity,mean_motion_rev_per_day,perigee_km,apogee_km,l1,l2
STARLINK-1451,45668,53.055,0.0003017,15.07362844,542.1736628481594,546.3506384956754,1 45668U 20035M   26018.46623508  .00015347  00000+0  10201-2 0  9995,2 45668  53.0550 292.3293 0003017 101.4244 258.7084 15.07362844311162
STARLINK-1452,45669,53.0352,0.0004231,15.36312796,454.13195032428484,459.91586348370674,1 45669U 20035N   26017.95147080  .00066765  00000+0  18525-2 0  9992,2 45669  53.0352 261.8750 0004231 147.8289 212.2972 15.36312796311540
STARLINK-1453,45670,53.0526,0.0007549,15.41336379,437.0155688720906,447.312859645378,1 45670U 20035P   26018.38097728  .00081570  00000+0  19141-2 0  9991,2 45670  53.0526 253.6587 0007549 130.4621 229.7043 15.41336379311580
STARLINK-1454,45671,53.0541,0.0001845,15.2228683,497.67583786495743,500.21348099728857,1 45671U 20035Q   26018.66668981  .01545853  00000+0  60319-1 0  9990,2 45671  53.0541 290.7044 0001845  68.6235  30.9327 15.22286830  5845
STARLINK-1456,45673,53.0554,0.0007214,15.3926495,443.35710244516304,453.206259317938,1 45673U 20035S   26018.16061548  .00070425  00000+0  17735-2 0  9995,2 45673  53.0554 286.9475 0007214 108.9240 251.2546 15.39264950311215
STARLINK-1457,45674,53.0508,0.0001307,15.62324758,380.06028140449416,381.82710509771005,1 45674U 20035T   26018.66668981  .00460221  00000+0  48323-2 0  9999,2 45674  53.0508 270.1069 0001307  81.7270 298.0813 15.62324758  5975
STARLINK-1458,45675,53.0543,5.26e-05,15.18753223,509.24527272641626,509.96986345497953,1 45675U 20035U   26018.66668981  .01628162  00000+0  71089-1 0  9995,2 45675  53.0543 290.8361 0000526  50.0554 279.5087 15.18753223  5695
STARLINK-1460,45676,53.0543,0.0001434,15.06396725,546.228498937202,548.214691782352,1 45676U 20035V   26018.47665262  .00003636  00000+0  26286-3 0  9997,2 45676  53.0543 292.0336 0001434  85.6908 274.4245 15.06396725311123
STARLINK-1392,45677,53.055,0.0001763,15.06397886,545.9970969583492,548.438977144413,1 45677U 20035W   26018.48771408  .00000806  00000+0  73027-4 0  9991,2 45677  53.0550 291.9839 0001763  90.1455 269.9736 15.06397886311168
STARLINK-1394,45679,53.0532,0.0006099,15.40037186,441.83742376586724,450.1615054253816,1 45679U 20035Y   26018.13471489  .00070521  00000+0  17318-2 0  9991,2 45679  53.0532 277.0475 0006099 114.9209 245.2430 15.40037186311340
STARLINK-1402,45685,53.0516,0.0010893,15.36473427,449.10248769182544,463.9925313642834,1 45685U 20035AE  26018.38340268  .00063815  00000+0  17601-2 0  9998,2 45685  53.0516 261.4439 0010893  95.1783 265.0463 15.36473427311590
STARLINK-1404,45686,53.0641,0.0002943,15.09852618,534.6149290439052,538.684972643171,1 45686U 20035AF  26018.66668981  .00113291  00000+0  68305-2 0  9996,2 45686  53.0641 281.1694 0002943  75.2542  58.2074 15.09852618  5741
STARLINK-1413,45689,53.068,7.13e-05,15.10728179,533.4851593218391,534.4708269198591,1 45689U 20035AJ  26018.66668981  .00118913  00000+0  69926-2 0  9995,2 45689  53.0680 281.1547 0000713  45.7760 353.6187 15.10728179  5801
STARLINK-1417,45693,53.0527,0.0007336,15.09577019,532.4182282446782,542.5648384287906,1 45693U 20035AN  26018.46082612  .00025552  00000+0  15846-2 0  9997,2 45693  53.0527 281.4258 0007336  90.6496 269.5335 15.09577019311309
STARLINK-1420,45695,53.0552,0.0001543,15.21105799,501.44222751898997,503.5655933039425,1 45695U 20035AQ  26018.66668981  .01638974  00000+0  66826-1 0  9992,2 45695  53.0552 260.7427 0001543 114.5429 150.0979 15.21105799  5857
STARLINK-1422,45696,53.0849,0.0001712,15.14058851,522.6556698437771,525.0189058399346,1 45696U 20035AR  26018.66668981  .00077162  00000+0  41655-2 0  9992,2 45696  53.0849 281.0083 0001712  70.0818  11.7372 15.14058851  5743
STARLINK-1351,45697,53.0594,0.0001838,15.25344674,488.48832119435883,491.0129566904343,1 45697U 20035AS  26018.66668981  .01063026  00000+0  38070-1 0  9994,2 45697  53.0594 259.8486 0001838 111.9912 333.4420 15.25344674  5796
STARLINK-1398,45699,53.0423,0.0004402,15.70820797,353.585338701143,359.5145570900695,1 45699U 20035AU  26018.66668981  .00201476  00000+0  15537-2 0  9992,2 45699  53.0423 190.8903 0004402 176.1560 213.8804 15.70820797  5959
STARLINK-1400,45700,53.0538,0.0001672,15.21640996,499.7402533866625,502.04060015817504,1 45700U 20035AV  26018.66668981  .01513748  00000+0  60311-1 0  9993,2 45700  53.0538 260.7167 0001672  89.3698  45.7148 15.21640996  5849
STARLINK-1403,45701,53.0541,0.0001587,15.06398372,546.1174939203038,548.3156011362898,1 45701U 20035AW  26018.38358665  .00000454  00000+0  49374-4 0  9991,2 45701  53.0541 262.4518 0001587  87.5220 272.5951 15.06398372311561
STARLINK-1407,45703,53.0377,0.000529,15.50639259,411.264968144219,418.45195734380195,1 45703U 20035AY  26018.64074002  .00133701  00000+0  22613-2 0  9999,2 45703  53.0377 197.9175 0005290 282.8707  77.1710 15.50639259312504
STARLINK-1411,45706,53.0463,0.0001866,15.53071001,406.4995450042006,409.0320439270954,1 45706U 20035BB  26017.99651578  .00054757  00000+0  86212-3 0  9997,2 45706  53.0463 227.4209 0001866 172.1970 187.9068 15.53071001312029
STARLINK-1423,45710,53.0567,0.0001382,15.24520889,491.27500472802785,493.17397264350166,1 45710U 20035BF  26018.66668981  .01080768  00000+0  40157-1 0  9991,2 45710  53.0567 260.5091 0001382  95.3090 207.2314 15.24520889  5747
STARLINK-1433,45711,53.0557,0.0001699,15.26176114,486.08962757639074,488.42248813744936,1 45711U 20035BG  26018.66668981  .00570882  00000+0  20412-1 0  9994,2 45711  53.0557 260.3228 0001699 105.1331  34.1540 15.26176114  5856
STARLINK-1434,45712,53.0522,0.0004469,15.21070168,499.5363560171918,505.6863689035599,1 45712U 20035BH  26018.66149542  .00035794  00000+0  15971-2 0  9995,2 45712  53.0522 250.7920 0004469  77.7895 282.3601 15.21070168311760
STARLINK-1465,45731,53.0555,0.0001452,15.22347984,497.7619605768941,499.759011606855,1 45731U 20038B   26018.66668981  .00107469  00000+0  45467-2 0  9994,2 45731  53.0555 100.5515 0001452  62.1209 138.7859 15.22347984  5847
STARLINK-1471,45735,53.0499,0.0002788,15.44806524,430.04797109413175,433.8452737219859,1 45735U 20038F   26018.38484571  .00019426  00000+0  41608-3 0  9997,2 45735  53.0499  22.3433 0002788  73.3859 286.7452 15.44806524309749
STARLINK-1474,45738,53.0296,0.000576,15.8679439,307.42383036768933,315.13003521826613,1 45738U 20038J   26018.66668981  .00249965  00000+0  93089-3 0  9993,2 45738  53.0296 319.2870 0005760 122.3394 147.6407 15.86794390  6069
STARLINK-1480,45741,53.0532,0.0005648,15.39279744,444.3824051565334,452.0934782907043,1 45741U 20038M   26018.56407616  .00050837  00000+0  12861-2 0  9998,2 45741  53.0532  95.5889 0005648  18.3687 341.7519 15.39279744308733
STARLINK-1500,45744,53.0377,0.0003506,15.31753061,468.180666890732,472.98298853272354,1 45744U 20038Q   26018.42294560  .00019795  00000+0  64680-3 0  9993,2 45744  53.0377  68.0169 0003506  75.3322 284.8066 15.31753061309106
STARLINK-1504,45746,53.0252,0.0004056,15.49497027,415.4398235275248,420.95300919487636,1 45746U 20038S   26018.30890347  .00025347  00000+0  45915-3 0  9997,2 45746  53.0252  24.5874 0004056  48.5073 311.6282 15.49497027309695
STARLINK-1506,45747,53.0799,0.0004363,15.24252157,490.0340894856554,496.02987153805043,1 45747U 20038T   26018.53638323  .00027467  00000+0  11203-2 0  9994,2 45747  53.0799  74.0606 0004363  83.8800 276.2694 15.24252157309033
STARLINK-1464,45751,53.0541,0.0001082,15.18852536,508.5620980110443,510.0525409617803,1 45751U 20038X   26018.66668981  .00453668  00000+0  20206-1 0  9994,2 45751  53.0541  80.6696 0001082  53.7759 175.7261 15.18852536  5743
STARLINK-1477,45754,53.0515,0.0001878,15.11196938,531.2507106642261,533.8463641520757,1 45754U 20038AA  26018.48858158  .00016389  00000+0  98001-3 0  9999,2 45754  53.0515  80.5772 0001878 220.7534 139.3317 15.11196938308936
STARLINK-1478,45755,53.0538,0.0001507,15.44373057,432.1943715970001,434.247314850948,1 45755U 20038AB  26018.66668981  .00102225  00000+0  21602-2 0  9990,2 45755  53.0538  77.8528 0001507  76.7385 335.6643 15.44373057  5754
STARLINK-1484,45756,53.0099,0.0004684,15.77837406,333.4239468470696,339.71428353577994,1 45756U 20038AC  26018.11048045  .00116048  00000+0  66917-3 0  9991,2 45756  53.0099 313.6725 0004684 105.6073 254.5464 15.77837406310660
STARLINK-1493,45759,53.0545,3.14e-05,15.1684329,515.1717004100738,515.6046137899384,1 45759U 20038AF  26018.66668981  .00111074  00000+0  55088-2 0  9991,2 45759  53.0545  80.8666 0000314 224.6291 143.8657 15.16843290  5842
STARLINK-1494,45760,53.0515,0.0001413,15.64791566,372.8842250078196,374.79233322169694,1 45760U 20038AG  26018.43149054  .00052507  00000+0  53130-3 0  9995,2 45760  53.0515  39.7515 0001413  74.8858 285.2313 15.64791566309503
STARLINK-1502,45764,53.0542,0.0001099,15.12265549,528.5334992197804,530.0517522515165,1 45764U 20038AL  26018.66668981  .00072451  00000+0  41160-2 0  9998,2 45764  53.0542  80.9960 0001099  59.4972  64.4096 15.12265549  5794
STARLINK-1470,45772,53.044,9.83e-05,15.23670146,494.10602574765835,495.4572415510347,1 45772U 20038AU  26018.36551422  .00012319  00000+0  51993-3 0  9998,2 45772  53.0440  47.0820 0000983 165.6244 194.4780 15.23670146309394
STARLINK-1482,45773,53.0549,0.0001593,15.06403856,546.0965337361904,548.3029460215148,1 45773U 20038AV  26018.49416058 -.00001845  00000+0 -10496-3 0  9995,2 45773  53.0549  61.9562 0001593  94.5203 265.5968 15.06403856309195
STARLINK-1496,45780,53.0547,0.0004314,15.38886365,446.4558237083438,452.34662368775116,1 45780U 20038BC  26018.46231249  .00078866  00000+0  20084-2 0  9995,2 45780  53.0547  56.4926 0004314  33.2496 326.8778 15.38886365309254
STARLINK-1497,45781,53.0319,0.0008553,15.872293,304.3345077196318,315.77532881501975,1 45781U 20038BD  26018.66668981  .00407072  00000+0  14545-2 0  9995,2 45781  53.0319 331.6479 0008553  93.0951 241.0012 15.87229300  5821
